#aV2008 12 11  0  0   .00000000      96 DD+AD WGS84 FIT  NGA
## 1509 345600.00000000   900.00000000 54811  .0000000000000
+   31     2  3  4  5  6  7  8  9 10 11 12 13 14 15 16 17 18
+         19 20 21 22 23 24 25 26 27 28 29 30 31 32  0  0  0
+          0  0  0  0  0  0  0  0  0  0  0  0  0  0  0  0  0
+          0  0  0  0  0  0  0  0  0  0  0  0  0  0  0  0  0
+          0  0  0  0  0  0  0  0  0  0  0  0  0  0  0  0  0
++         0  0  0  0  0  0  0  0  0  0  0  0  0  0  0  0  0
++         0  0  0  0  0  0  0  0  0  0  0  0  0  0  0  0  0
++         0  0  0  0  0  0  0  0  0  0  0  0  0  0  0  0  0
++         0  0  0  0  0  0  0  0  0  0  0  0  0  0  0  0  0
++         0  0  0  0  0  0  0  0  0  0  0  0  0  0  0  0  0
%c cc cc ccc ccc cccc cccc cccc cccc ccccc ccccc ccccc ccccc
%c cc cc ccc ccc cccc cccc cccc cccc ccccc ccccc ccccc ccccc
%f  0.0000000  0.000000000  0.00000000000  0.000000000000000
%f  0.0000000  0.000000000  0.00000000000  0.000000000000000
%i    0    0    0    0      0      0      0      0         0
%i    0    0    0    0      0      0      0      0         0
/*      NGA, ST. LOUIS,MO.                                  
/*   EPHEMERIS COMPUTED FROM  3 DAYS OF DATA                
/* CCCCCCCCCCCCCCCCCCCCCCCCCCCCCCCCCCCCCCCCCCCCCCCCCCCCCCCCC
/* CCCCCCCCCCCCCCCCCCCCCCCCCCCCCCCCCCCCCCCCCCCCCCCCCCCCCCCCC
*  2008 12 11  5  0   .00000000                                                 
P  2  13988.010267  21454.874212  -7870.069574    167.771677                    
V  2    704.839561  10124.483069  28953.304892      -.022381                    
P  3 -20695.475038 -11240.098971 -12911.741185    323.110662                    
V  3  16040.291827  -1642.793995 -24496.337821       .052732                    
P  4   4826.657731  25371.266239   5161.290273   -260.783023                    
V  4  -5686.267051  -5219.538360  30632.437900      -.126813                    
P  5  19710.073464 -11545.983329  13151.842257   -389.371892                    
V  5  -7620.292260  15748.580804  24815.444340       .155458                    
P  6 -16724.815205 -13726.039710 -15231.960033    124.692079                    
V  6  19915.661210    128.192635 -21702.681407      -.093290                    
P  7 -10129.052068  13660.637146 -20393.561466     23.519930                    
V  7  -9599.562681 -24040.311695 -11451.711659       .000706                    
P  8  -1864.741991  23127.628015 -12512.598320   -181.633250                    
V  8  -6371.590257 -14742.218620 -26911.344513      -.015847                    
P  9  16251.224911   4242.742105  19966.432829     29.106618                    
V  9   8900.990874  25220.587908 -12107.360622       .018513                    
P 10  11403.329419  10166.137995 -21870.886594     -8.172368                    
V 10 -18408.962702  20330.946855    182.681065      -.004511                    
P 11 -18429.536426   -705.380379  19021.518798     13.566156                    
V 11 -11315.303136 -22106.316718 -11313.380508      -.008886                    
P 12  20145.048947  -6354.345865  16114.504486   -334.703224                    
V 12 -11858.669293  16646.142384  21580.507918       .028068                    
P 13 -20051.953242   6149.050758 -16404.649790    280.626067                    
V 13 -19721.824193  -5890.355372  22055.114137       .014540                    
P 14  -1790.381144 -15141.094900  21882.991456   -183.427864                    
V 14  26826.889074   5595.702398   5991.785535       .049947                    
P 15  25643.912019   6393.103062  -2814.103361   -224.791168                    
V 15  -4047.027119   2241.890831 -31375.762404      -.059724                    
P 16  -5679.176442 -15276.983719 -20869.483244     89.749325                    
V 16  18353.469142 -19359.561588   9362.255053      -.025016                    
P 17  -1287.553681  15288.117628  21731.938301     41.856719                    
V 17 -26975.675565  -5282.548015   1943.665993       .006658                    
P 18  16966.343779 -20140.517968   1391.514049   -104.262017                    
V 18   3715.897376   1296.139645 -31574.328666       .037837                    
P 19 -25636.229286  -7329.917861   -940.456293     35.005703                    
V 19   1915.128361  -2351.798518 -31492.237113      -.003223                    
P 20 -20575.052849   9711.416122  13551.645952     96.724974                    
V 20   8988.256377 -15198.086689  24369.793501      -.010163                    
P 21   7744.796601 -17857.078198 -17572.516611     38.898518                    
V 21   9568.093442  21131.398685 -17660.164855      -.016155                    
P 22   8294.500387 -22122.168469  12238.148123    208.222210                    
V 22  12451.691728  -9402.087268 -25830.144501      -.002818                    
P 23 -25257.985621   1218.692947  -8608.325448    382.393052                    
V 23 -10201.281455  -4048.197406  29256.754615       .009876                    
P 24  14895.160915  -3711.308460 -21526.417771    148.281940                    
V 24   7731.639111  26613.401390   1026.825871       .032699                    
P 25 -13179.252848   6976.962724 -21625.021288     91.270821                    
V 25 -11944.006639 -25650.030000   -806.521931       .287887                    
P 26  22848.833693  11338.841066  -8827.574108     24.987415                    
V 26 -10298.773614  -1284.328168 -29522.477468       .040864                    
P 27  -2759.293138  20779.038420 -15601.051468      7.000389                    
V 27 -10005.421551 -18615.585117 -22196.122785       .030040                    
P 28  -9639.521797  22130.209128  11089.180857    -23.726430                    
V 28 -10933.864346   8437.038332 -27668.083177      -.000112                    
P 29  20904.664975  -6370.456614 -14970.103768    -25.519728                    
V 29  18368.981175   6000.924740  22974.493197       .021215                    
P 30  18723.147068 -17949.106545   5147.266026    112.933893                    
V 30  -1821.445582   7482.510643  30667.561699       .021151                    
P 31  -6904.074586 -25426.329781   3030.618062    -42.924799                    
V 31   3624.064728   2523.934955  31743.873680      -.016953                    
P 32 -19143.395481    764.850920  18722.586322    310.357332                    
V 32  15338.724580 -17159.558228  16979.924422      -.018998                    
EOF
